1 31122U 07012F   12286.96860798 +.00001009 +00000-0 +22526-3 0  9991
2 31122 097.8686 297.3263 0085269 086.2600 274.8346 14.56557791291746
1 31122U 07012F   12287.72426329  .00000768  00000-0  17383-3 0  9990
2 31122 097.8682 298.0392 0085383 083.8934 277.1938 14.56558264291854
1 31122U 07012F   12287.93035173 +.00000847 +00000-0 +19074-3 0  9993
2 31122 097.8683 298.2338 0085372 083.2076 277.8831 14.56558960291881
1 31122U 07012F   12288.96078595 +.00001327 +00000-0 +29328-3 0  9999
2 31122 097.8680 299.2076 0085330 080.0232 281.0592 14.56563403292038
1 31122U 07012F   12289.02948138  .00001337  00000-0  29531-3 0  9993
2 31122 097.8681 299.2725 0085328 079.8056 281.2754 14.56563631292043
1 31122U 07012F   12289.99121910 +.00001439 +00000-0 +31711-3 0  9996
2 31122 097.8683 300.1812 0085282 076.8226 284.2513 14.56566591292188
1 31122U 07012F   12290.47208604  .00001435  00000-0  31633-3 0  9996
2 31122 097.8683 300.6356 0085284 075.3031 285.7601 14.56567958292256
1 31122U 07012F   12290.95295318 +.00001434 +00000-0 +31621-3 0  9993
2 31122 097.8683 301.0895 0085269 073.8105 287.2458 14.56569379292321
1 31122U 07012F   12291.50251561  .00001247  00000-0  27615-3 0  9997
2 31122 097.8681 301.6077 0085210 072.0792 288.9671 14.56570150292409
1 31122U 07012F   12291.98338192 +.00001293 +00000-0 +28590-3 0  9999
2 31122 097.8681 302.0621 0085197 070.5652 290.4742 14.56571562292473
1 31122U 07012F   12292.53294244  .00001194  00000-0  26480-3 0  9996
2 31122 097.8678 302.5804 0085121 068.8818 292.1448 14.56572598292559
1 31122U 07012F   12292.73902785 +.00001039 +00000-0 +23180-3 0  9996
2 31122 097.8678 302.7749 0085114 068.3589 292.6635 14.56572352292585
1 31122U 07012F   12293.56336801  .00001122  00000-0  24939-3 0  9994
2 31122 097.8676 303.5529 0085121 065.8073 295.2002 14.56574526292702
1 31122U 07012F   12294.59378753  .00001599  00000-0  35141-3 0  9995
2 31122 097.8675 304.5257 0085107 062.7731 298.2111 14.56579651292855
1 31122U 07012F   12294.93726040 +.00001704 +00000-0 +37371-3 0  9994
2 31122 097.8675 304.8499 0085060 061.6851 299.2914 14.56581279292902
1 31122U 07012F   12295.96767511  .00001964  00000-0  42929-3 0  9999
2 31122 097.8673 305.8225 0084988 058.4743 302.4726 14.56586487293051
1 31122U 07012F   12295.96767511 +.00001964 +00000-0 +42929-3 0  9999
2 31122 097.8673 305.8225 0084988 058.4743 302.4726 14.56586487293051
1 31122U 07012F   12296.92939499 +.00001789 +00000-0 +39200-3 0  9995
2 31122 097.8672 306.7300 0084979 055.4935 305.4264 14.56589339293198
1 31122U 07012F   12296.99808898  .00001825  00000-0  39970-3 0  9995
2 31122 097.8672 306.7949 0084995 055.2476 305.6700 14.56589756293205
1 31122U 07012F   12297.95980564 +.00001693 +00000-0 +37139-3 0  9991
2 31122 097.8670 307.7025 0084980 052.3070 308.5800 14.56592621293344
1 31122U 07012F   12298.02849950  .00001691  00000-0  37104-3 0  9993
2 31122 097.8670 307.7673 0084980 052.0911 308.7932 14.56592852293359
1 31122U 07012F   12298.99021191 +.00001997 +00000-0 +43626-3 0  9993
2 31122 097.8672 308.6757 0084925 049.0509 311.8001 14.56597455293493
1 31122U 07012F   12299.53976105  .00001854  00000-0  40594-3 0  9991
2 31122 097.8670 309.1941 0084809 047.3386 313.4917 14.56599088293574
1 31122U 07012F   12299.95192240 +.00001940 +00000-0 +42412-3 0  9994
2 31122 097.8670 309.5832 0084845 046.0258 314.7909 14.56601049293634
1 31122U 07012F   12300.57016258  .00002056  00000-0  44885-3 0  9994
2 31122 097.8670 310.1668 0084895 044.1023 316.6909 14.56604092293725
1 31122U 07012F   12301.60056166  .00001924  00000-0  42059-3 0  9995
2 31122 097.8671 311.1398 0084907 040.8778 319.8747 14.56607601293871
1 31122U 07012F   12302.97442334  .00001654  00000-0  36300-3 0  9994
2 31122 097.8672 312.4367 0084811 036.5379 324.1565 14.56611364294076
1 31122U 07012F   12304.00481861  .00001276  00000-0  28237-3 0  9998
2 31122 097.8671 313.4092 0084761 033.3942 327.2572 14.56612603294222
1 31122U 07012F   12305.03521044  .00001160  00000-0  25759-3 0  9998
2 31122 097.8668 314.3810 0084693 030.1987 330.4046 14.56614742294378
1 31122U 07012F   12307.71422445  .00000848  00000-0  19088-3 0  9990
2 31122 097.8677 316.9113 0084764 022.0013 338.4787 14.56618542294766
1 31122U 07012F   12309.01937801  .00001165  00000-0  25881-3 0  9993
2 31122 097.8666 318.1417 0084558 018.0423 342.3747 14.56623093294954
1 31122U 07012F   12310.53060698  .00000913  00000-0  20491-3 0  9995
2 31122 097.8663 319.5671 0084466 013.3436 346.9942 14.56625375295175
1 31122U 07012F   12311.56099000  .00000664  00000-0  15175-3 0  9994
2 31122 097.8659 320.5387 0084388 010.0454 350.2410 14.56626272295325
1 31122U 07012F   12312.59137074  .00000619  00000-0  14209-3 0  9999
2 31122 097.8658 321.5108 0084273 006.8151 353.4177 14.56627667295476
1 31122U 07012F   12314.03390033  .00000859  00000-0  19346-3 0  9999
2 31122 097.8661 322.8740 0084031 002.3431 357.8144 14.56630832295683
1 31122U 07012F   12315.54512015  .00000861  00000-0  19392-3 0  9996
2 31122 097.8660 324.3008 0083726 357.5984 002.4801 14.56633260295900
1 31122U 07012F   12316.57549609  .00000838  00000-0  18906-3 0  9993
2 31122 097.8659 325.2731 0083697 354.3953 005.6298 14.56635072296054
1 31122U 07012F   12317.60586924  .00001079  00000-0  24073-3 0  9999
2 31122 097.8660 326.2469 0083500 351.1997 008.7734 14.56638116296209
1 31122U 07012F   12318.97969757  .00001319  00000-0  29195-3 0  9996
2 31122 097.8662 327.5446 0083530 346.8673 013.0351 14.56642442296408
1 31122U 07012F   12320.01006585  .00001657  00000-0  36412-3 0  9990
2 31122 097.8656 328.5173 0083634 343.6086 016.2417 14.56646804296557
1 31122U 07012F   12321.58995664  .00002209  00000-0  48209-3 0  9999
2 31122 097.8648 330.0073 0083518 338.7573 021.0170 14.56655414296784
1 31122U 07012F   12322.68900792  .00002025  00000-0  44279-3 0  9998
2 31122 097.8644 331.0430 0083296 335.2751 024.4468 14.56659477296949
1 31122U 07012F   12323.92543643  .00002084  00000-0  45539-3 0  9999
2 31122 097.8645 332.2101 0083303 331.3675 028.2976 14.56664968297127
1 31122U 07012F   12325.43662084  .00001952  00000-0  42715-3 0  9994
2 31122 097.8646 333.6364 0083054 326.6124 032.9818 14.56670732297340
1 31122U 07012F   12326.53566203  .00001763  00000-0  38688-3 0  9996
2 31122 097.8642 334.6728 0082990 323.1768 036.3692 14.56674190297503
1 31122U 07012F   12327.56600932  .00002006  00000-0  43859-3 0  9995
2 31122 097.8648 335.6465 0083164 319.8923 039.6149 14.56679414297650
1 31122U 07012F   12328.73373349  .00001690  00000-0  37120-3 0  9996
2 31122 097.8646 336.7486 0082846 316.0722 043.3872 14.56682621297823
1 31122U 07012F   12329.97014495  .00001975  00000-0  43221-3 0  9992
2 31122 097.8651 337.9171 0082709 312.2653 047.1562 14.56688458298005
1 31122U 07012F   12331.00048614  .00001802  00000-0  39528-3 0  9993
2 31122 097.8658 338.8903 0082719 308.9699 050.4189 14.56691444298155
1 31122U 07012F   12332.03082396  .00001738  00000-0  38156-3 0  9996
2 31122 097.8658 339.8629 0082727 305.7979 053.5550 14.56694992298300
1 31122U 07012F   12332.92378344 +.00001577 +00000-0 +34701-3 0  9998
2 31122 097.8656 340.7053 0082848 303.0145 056.3127 14.56697285298433
1 31122U 07012F   12333.54198489  .00001377  00000-0  30434-3 0  9994
2 31122 097.8653 341.2886 0082770 300.9296 058.3780 14.56698252298529
1 31122U 07012F   12333.95411914 +.00001377 +00000-0 +30434-3 0  9990
2 31122 097.8653 341.6776 0082769 299.6404 059.6570 14.56699424298583
1 31122U 07012F   12334.98445579  .00000977  00000-0  21898-3 0  9997
2 31122 097.8654 342.6509 0082716 296.3500 062.9221 14.56699878298732
1 31122U 07012F   12336.01479096  .00000856  00000-0  19304-3 0  9999
2 31122 097.8655 343.6234 0082722 293.1045 066.1449 14.56701392298884
1 31122U 07012F   12337.52594971  .00000551  00000-0  12778-3 0  9996
2 31122 097.8654 345.0498 0082748 288.3980 070.8229 14.56702243299103
1 31122U 07012F   12338.55628390  .00000686  00000-0  15667-3 0  9992
2 31122 097.8651 346.0223 0082656 285.1382 074.0688 14.56704132299256
1 31122U 07012F   12339.58661824  .00000469  00000-0  11038-3 0  9992
2 31122 097.8651 346.9948 0082598 281.8241 077.3681 14.56704505299401
1 31122U 07012F   12341.02908313  .00000799  00000-0  18076-3 0  9996
2 31122 097.8642 348.3554 0082581 277.1798 082.0000 14.56708285299617
1 31122U 07012F   12342.54023792  .00000653  00000-0  14961-3 0  9991
2 31122 097.8642 349.7817 0082588 272.4294 086.7438 14.56709872299833
1 31122U 07012F   12343.57057137  .00000426  00000-0  10116-3 0  9991
2 31122 097.8644 350.7543 0082580 269.0681 090.1056 14.56709916299987
1 31122U 07012F   12344.66959233  .00000505  00000-0  11790-3 0  9997
2 31122 097.8642 351.7920 0082532 265.5997 093.5761 14.56711389300141
1 31122U 07012F   12345.90599063  .00000584  00000-0  13496-3 0  9998
2 31122 097.8644 352.9595 0082510 261.7406 097.4430 14.56713216300320
1 31122U 07012F   12347.00500985  .00000745  00000-0  16922-3 0  9992
2 31122 097.8645 353.9971 0082546 258.3363 100.8564 14.56715535300483
1 31122U 07012F   12348.24140627  .00000659  00000-0  15095-3 0  9996
2 31122 097.8641 355.1635 0082590 254.4281 104.7770 14.56717072300665
1 31122U 07012F   12349.54649101  .00000723  00000-0  16446-3 0  9994
2 31122 097.8633 356.3961 0082594 250.2193 109.0084 14.56719186300856
1 31122U 07012F   12350.57682029  .00000738  00000-0  16769-3 0  9999
2 31122 097.8633 357.3683 0082571 246.9339 112.3137 14.56720793301007
1 31122U 07012F   12352.01927856  .00000901  00000-0  20241-3 0  9992
2 31122 097.8632 358.7295 0082565 242.3795 116.9001 14.56724235301217
1 31122U 07012F   12353.53042413  .00000889  00000-0  19995-3 0  9996
2 31122 097.8629 000.1555 0082611 237.5366 121.7827 14.56727031301433
1 31122U 07012F   12354.56074890  .00001009  00000-0  22541-3 0  9990
2 31122 097.8626 001.1273 0082610 234.3406 125.0083 14.56729737301589
